STARLINK-35378          
1 65794U 25218D   26063.48594082  .00005539  00000+0  38793-3 0  9990
2 65794  97.6016 287.7781 0002165  81.5096 278.6376 15.05638129 24189
STARLINK-35406          
1 65795U 25218E   26063.21178838  .00006008  00000+0  42010-3 0  9998
2 65795  97.6031 287.5267 0003091  79.1131 281.0443 15.05659336 24148
STARLINK-35390          
1 65796U 25218F   26063.85145021  .00007985  00000+0  55680-3 0  9999
2 65796  97.6004 288.2162 0002228  78.9592 281.1885 15.05662079 24240
STARLINK-35412          
1 65797U 25218G   26063.56900357  .00006519  00000+0  45541-3 0  9996
2 65797  97.6012 287.9755 0001797  94.3960 265.7472 15.05664937 24206
STARLINK-35414          
1 65798U 25218H   26063.60225044  .00008361  00000+0  58275-3 0  9990
2 65798  97.6021 287.9320 0002002  75.8323 284.3126 15.05666248 24202
STARLINK-35357          
1 65799U 25218J   26063.60776751  .00006882  00000+0  48051-3 0  9994
2 65799  97.6025 287.9239 0002376  89.0164 271.1335 15.05662112 24202
STARLINK-35300          
1 65800U 25218K   26063.49146117  .00008553  00000+0  59604-3 0  9994
2 65800  97.6020 287.7710 0002211  84.3565 275.7914 15.05663627 24185
STARLINK-35296          
1 65801U 25218L   26063.57454258  .00006469  00000+0  45197-3 0  9998
2 65801  97.6014 287.9678 0002196  85.1360 275.0118 15.05663799 24200
STARLINK-34919          
1 65802U 25218M   26063.59115535  .00006302  00000+0  44047-3 0  9992
2 65802  97.6007 287.9463 0001957  94.9311 265.2139 15.05659280 24207
STARLINK-35286          
1 65803U 25218N   26063.55515200  .00009324  00000+0  64936-3 0  9998
2 65803  97.6019 287.8412 0002517  84.4379 275.7135 15.05661604 24198
STARLINK-35266          
1 65804U 25218P   26063.21732225  .00007249  00000+0  50594-3 0  9999
2 65804  97.6031 287.5192 0001910  97.4131 262.7313 15.05661455 24144
STARLINK-35273          
1 65805U 25218Q   26063.54684925  .00007642  00000+0  53318-3 0  9993
2 65805  97.6029 287.8512 0002292  84.1078 276.0410 15.05653159 24191
STARLINK-35047          
1 65806U 25218R   26063.20071272  .00006274  00000+0  43852-3 0  9994
2 65806  97.6019 287.5427 0002511  76.9920 283.1587 15.05660770 24148
STARLINK-35285          
1 65807U 25218S   26063.20624913  .00006602  00000+0  46119-3 0  9995
2 65807  97.6028 287.5350 0002377  89.9368 270.2131 15.05660837 24140
STARLINK-34580          
1 65808U 25218T   26063.53022619  .00010786  00000+0  74990-3 0  9993
2 65808  97.6021 287.8736 0003990  51.1118 309.0464 15.05677813 24198
STARLINK-35289          
1 65809U 25218U   26063.85421872  .00007364  00000+0  51388-3 0  9997
2 65809  97.6005 288.2121 0002097  82.9155 277.2311 15.05662191 24240
