[{"OBJECT_NAME":"STARLINK-35378","OBJECT_ID":"2025-218D","EPOCH":"2026-03-04T11:39:45.286848","MEAN_MOTION":15.05638129,"ECCENTRICITY":0.00021651,"INCLINATION":97.6016,"RA_OF_ASC_NODE":287.7781,"ARG_OF_PERICENTER":81.5096,"MEAN_ANOMALY":278.6376,"EPHEMERIS_TYPE":0,"CLASSIFICATION_TYPE":"U","NORAD_CAT_ID":65794,"ELEMENT_SET_NO":999,"REV_AT_EPOCH":2418,"BSTAR":0.00038793112,"MEAN_MOTION_DOT":5.539e-5,"MEAN_MOTION_DDOT":0},{"OBJECT_NAME":"STARLINK-35406","OBJECT_ID":"2025-218E","EPOCH":"2026-03-04T05:04:58.516032","MEAN_MOTION":15.05659336,"ECCENTRICITY":0.00030919,"INCLINATION":97.6031,"RA_OF_ASC_NODE":287.5267,"ARG_OF_PERICENTER":79.1131,"MEAN_ANOMALY":281.0443,"EPHEMERIS_TYPE":0,"CLASSIFICATION_TYPE":"U","NORAD_CAT_ID":65795,"ELEMENT_SET_NO":999,"REV_AT_EPOCH":2414,"BSTAR":0.00042009999,"MEAN_MOTION_DOT":6.008e-5,"MEAN_MOTION_DDOT":0},{"OBJECT_NAME":"STARLINK-35390","OBJECT_ID":"2025-218F","EPOCH":"2026-03-04T20:26:05.298144","MEAN_MOTION":15.05662079,"ECCENTRICITY":0.0002228,"INCLINATION":97.6004,"RA_OF_ASC_NODE":288.2162,"ARG_OF_PERICENTER":78.9592,"MEAN_ANOMALY":281.1885,"EPHEMERIS_TYPE":0,"CLASSIFICATION_TYPE":"U","NORAD_CAT_ID":65796,"ELEMENT_SET_NO":999,"REV_AT_EPOCH":2424,"BSTAR":0.0005568,"MEAN_MOTION_DOT":7.985e-5,"MEAN_MOTION_DDOT":0},{"OBJECT_NAME":"STARLINK-35412","OBJECT_ID":"2025-218G","EPOCH":"2026-03-04T13:39:21.908448","MEAN_MOTION":15.05664937,"ECCENTRICITY":0.0001797,"INCLINATION":97.6012,"RA_OF_ASC_NODE":287.9755,"ARG_OF_PERICENTER":94.396,"MEAN_ANOMALY":265.7472,"EPHEMERIS_TYPE":0,"CLASSIFICATION_TYPE":"U","NORAD_CAT_ID":65797,"ELEMENT_SET_NO":999,"REV_AT_EPOCH":2420,"BSTAR":0.00045541,"MEAN_MOTION_DOT":6.519e-5,"MEAN_MOTION_DDOT":0},{"OBJECT_NAME":"STARLINK-35414","OBJECT_ID":"2025-218H","EPOCH":"2026-03-04T14:27:14.438016","MEAN_MOTION":15.05666248,"ECCENTRICITY":0.0002002,"INCLINATION":97.6021,"RA_OF_ASC_NODE":287.932,"ARG_OF_PERICENTER":75.8323,"MEAN_ANOMALY":284.3126,"EPHEMERIS_TYPE":0,"CLASSIFICATION_TYPE":"U","NORAD_CAT_ID":65798,"ELEMENT_SET_NO":999,"REV_AT_EPOCH":2420,"BSTAR":0.00058275,"MEAN_MOTION_DOT":8.361e-5,"MEAN_MOTION_DDOT":0},{"OBJECT_NAME":"STARLINK-35357","OBJECT_ID":"2025-218J","EPOCH":"2026-03-04T14:35:11.112864","MEAN_MOTION":15.05662112,"ECCENTRICITY":0.0002376,"INCLINATION":97.6025,"RA_OF_ASC_NODE":287.9239,"ARG_OF_PERICENTER":89.0164,"MEAN_ANOMALY":271.1335,"EPHEMERIS_TYPE":0,"CLASSIFICATION_TYPE":"U","NORAD_CAT_ID":65799,"ELEMENT_SET_NO":999,"REV_AT_EPOCH":2420,"BSTAR":0.00048051,"MEAN_MOTION_DOT":6.882e-5,"MEAN_MOTION_DDOT":0},{"OBJECT_NAME":"STARLINK-35300","OBJECT_ID":"2025-218K","EPOCH":"2026-03-04T11:47:42.245088","MEAN_MOTION":15.05663627,"ECCENTRICITY":0.00022119,"INCLINATION":97.602,"RA_OF_ASC_NODE":287.771,"ARG_OF_PERICENTER":84.3565,"MEAN_ANOMALY":275.7914,"EPHEMERIS_TYPE":0,"CLASSIFICATION_TYPE":"U","NORAD_CAT_ID":65800,"ELEMENT_SET_NO":999,"REV_AT_EPOCH":2418,"BSTAR":0.00059603992,"MEAN_MOTION_DOT":8.553e-5,"MEAN_MOTION_DDOT":0},{"OBJECT_NAME":"STARLINK-35296","OBJECT_ID":"2025-218L","EPOCH":"2026-03-04T13:47:20.478912","MEAN_MOTION":15.05663799,"ECCENTRICITY":0.0002196,"INCLINATION":97.6014,"RA_OF_ASC_NODE":287.9678,"ARG_OF_PERICENTER":85.136,"MEAN_ANOMALY":275.0118,"EPHEMERIS_TYPE":0,"CLASSIFICATION_TYPE":"U","NORAD_CAT_ID":65801,"ELEMENT_SET_NO":999,"REV_AT_EPOCH":2420,"BSTAR":0.00045197,"MEAN_MOTION_DOT":6.469e-5,"MEAN_MOTION_DDOT":0},{"OBJECT_NAME":"STARLINK-34919","OBJECT_ID":"2025-218M","EPOCH":"2026-03-04T14:11:15.822240","MEAN_MOTION":15.0565928,"ECCENTRICITY":0.0001957,"INCLINATION":97.6007,"RA_OF_ASC_NODE":287.9463,"ARG_OF_PERICENTER":94.9311,"MEAN_ANOMALY":265.2139,"EPHEMERIS_TYPE":0,"CLASSIFICATION_TYPE":"U","NORAD_CAT_ID":65802,"ELEMENT_SET_NO":999,"REV_AT_EPOCH":2420,"BSTAR":0.00044047,"MEAN_MOTION_DOT":6.302e-5,"MEAN_MOTION_DDOT":0},{"OBJECT_NAME":"STARLINK-35286","OBJECT_ID":"2025-218N","EPOCH":"2026-03-04T13:19:25.132800","MEAN_MOTION":15.05661604,"ECCENTRICITY":0.0002517,"INCLINATION":97.6019,"RA_OF_ASC_NODE":287.8412,"ARG_OF_PERICENTER":84.4379,"MEAN_ANOMALY":275.7135,"EPHEMERIS_TYPE":0,"CLASSIFICATION_TYPE":"U","NORAD_CAT_ID":65803,"ELEMENT_SET_NO":999,"REV_AT_EPOCH":2419,"BSTAR":0.00064936,"MEAN_MOTION_DOT":9.324e-5,"MEAN_MOTION_DDOT":0},{"OBJECT_NAME":"STARLINK-35266","OBJECT_ID":"2025-218P","EPOCH":"2026-03-04T05:12:56.642400","MEAN_MOTION":15.05661455,"ECCENTRICITY":0.00019109,"INCLINATION":97.6031,"RA_OF_ASC_NODE":287.5192,"ARG_OF_PERICENTER":97.4131,"MEAN_ANOMALY":262.7313,"EPHEMERIS_TYPE":0,"CLASSIFICATION_TYPE":"U","NORAD_CAT_ID":65804,"ELEMENT_SET_NO":999,"REV_AT_EPOCH":2414,"BSTAR":0.00050593646,"MEAN_MOTION_DOT":7.249e-5,"MEAN_MOTION_DDOT":0},{"OBJECT_NAME":"STARLINK-35273","OBJECT_ID":"2025-218Q","EPOCH":"2026-03-04T13:07:27.775200","MEAN_MOTION":15.05653159,"ECCENTRICITY":0.0002292,"INCLINATION":97.6029,"RA_OF_ASC_NODE":287.8512,"ARG_OF_PERICENTER":84.1078,"MEAN_ANOMALY":276.041,"EPHEMERIS_TYPE":0,"CLASSIFICATION_TYPE":"U","NORAD_CAT_ID":65805,"ELEMENT_SET_NO":999,"REV_AT_EPOCH":2419,"BSTAR":0.00053318,"MEAN_MOTION_DOT":7.642e-5,"MEAN_MOTION_DDOT":0},{"OBJECT_NAME":"STARLINK-35047","OBJECT_ID":"2025-218R","EPOCH":"2026-03-04T04:49:01.579008","MEAN_MOTION":15.0566077,"ECCENTRICITY":0.00025118,"INCLINATION":97.6019,"RA_OF_ASC_NODE":287.5427,"ARG_OF_PERICENTER":76.992,"MEAN_ANOMALY":283.1587,"EPHEMERIS_TYPE":0,"CLASSIFICATION_TYPE":"U","NORAD_CAT_ID":65806,"ELEMENT_SET_NO":999,"REV_AT_EPOCH":2414,"BSTAR":0.00043851598,"MEAN_MOTION_DOT":6.274e-5,"MEAN_MOTION_DDOT":0},{"OBJECT_NAME":"STARLINK-35285","OBJECT_ID":"2025-218S","EPOCH":"2026-03-04T04:56:59.924832","MEAN_MOTION":15.05660837,"ECCENTRICITY":0.00023778,"INCLINATION":97.6028,"RA_OF_ASC_NODE":287.535,"ARG_OF_PERICENTER":89.9368,"MEAN_ANOMALY":270.2131,"EPHEMERIS_TYPE":0,"CLASSIFICATION_TYPE":"U","NORAD_CAT_ID":65807,"ELEMENT_SET_NO":999,"REV_AT_EPOCH":2414,"BSTAR":0.00046119257,"MEAN_MOTION_DOT":6.602e-5,"MEAN_MOTION_DDOT":0},{"OBJECT_NAME":"STARLINK-34580","OBJECT_ID":"2025-218T","EPOCH":"2026-03-04T12:43:31.542816","MEAN_MOTION":15.05677813,"ECCENTRICITY":0.000399,"INCLINATION":97.6021,"RA_OF_ASC_NODE":287.8736,"ARG_OF_PERICENTER":51.1118,"MEAN_ANOMALY":309.0464,"EPHEMERIS_TYPE":0,"CLASSIFICATION_TYPE":"U","NORAD_CAT_ID":65808,"ELEMENT_SET_NO":999,"REV_AT_EPOCH":2419,"BSTAR":0.0007499,"MEAN_MOTION_DOT":0.00010786,"MEAN_MOTION_DDOT":0},{"OBJECT_NAME":"STARLINK-35289","OBJECT_ID":"2025-218U","EPOCH":"2026-03-04T20:30:04.497408","MEAN_MOTION":15.05662191,"ECCENTRICITY":0.0002097,"INCLINATION":97.6005,"RA_OF_ASC_NODE":288.2121,"ARG_OF_PERICENTER":82.9155,"MEAN_ANOMALY":277.2311,"EPHEMERIS_TYPE":0,"CLASSIFICATION_TYPE":"U","NORAD_CAT_ID":65809,"ELEMENT_SET_NO":999,"REV_AT_EPOCH":2424,"BSTAR":0.00051388,"MEAN_MOTION_DOT":7.364e-5,"MEAN_MOTION_DDOT":0}]
